{
  "norad_id": 61252,
  "name": "STARLINK-11318 [DTC]",
  "history": [
    {
      "epoch": "2026-03-28T22:06:57.026304",
      "apogee_km": 360.4575749119931,
      "perigee_km": 359.1306067629639,
      "latitude_deg": -52.178153540511246,
      "longitude_deg": 33.663362559862435,
      "semi_major_axis_km": 6737.931090837478,
      "eccentricity": 9.847e-05,
      "inclination_deg": 53.1586,
      "raan_deg": 321.7026,
      "arg_perigee_deg": 101.9151,
      "mean_anomaly_deg": 258.1977,
      "mean_motion_rev_day": 15.69686468
    },
    {
      "epoch": "2026-03-29T01:10:18.880032",
      "apogee_km": 360.45626721551616,
      "perigee_km": 359.10868332046357,
      "latitude_deg": 14.395485673097395,
      "longitude_deg": 45.887644479982555,
      "semi_major_axis_km": 6737.91947526799,
      "eccentricity": 0.0001,
      "inclination_deg": 53.1587,
      "raan_deg": 321.0746,
      "arg_perigee_deg": 99.0189,
      "mean_anomaly_deg": 261.0942,
      "mean_motion_rev_day": 15.69690527
    }
  ]
}